[
	{
		"ID" : 1,
		"postal_code" : 2500,
		"name" : "Valby"
	},
	{
		"ID" : 2,
		"postal_code" : 2600,
		"name" : "Glostrup"
	},
	{
		"ID" : 3,
		"postal_code" : 2605,
		"name" : "Brøndby"
	},
	{
		"ID" : 4,
		"postal_code" : 2610,
		"name" : "Rødovre"
	},
	{
		"ID" : 5,
		"postal_code" : 2620,
		"name" : "Albertslund"
	},
	{
		"ID" : 6,
		"postal_code" : 2625,
		"name" : "Vallensbæk"
	},
	{
		"ID" : 7,
		"postal_code" : 2630,
		"name" : "Taastrup"
	},
	{
		"ID" : 8,
		"postal_code" : 2633,
		"name" : "Taastrup"
	},
	{
		"ID" : 9,
		"postal_code" : 2635,
		"name" : "Ishøj"
	},
	{
		"ID" : 10,
		"postal_code" : 2640,
		"name" : "Hedehusene"
	},
	{
		"ID" : 11,
		"postal_code" : 2650,
		"name" : "Hvidovre"
	},
	{
		"ID" : 12,
		"postal_code" : 2660,
		"name" : "Brøndby Strand"
	},
	{
		"ID" : 13,
		"postal_code" : 2665,
		"name" : "Vallensbæk Strand"
	},
	{
		"ID" : 14,
		"postal_code" : 2670,
		"name" : "Greve"
	},
	{
		"ID" : 15,
		"postal_code" : 2680,
		"name" : "Solrød Strand"
	},
	{
		"ID" : 16,
		"postal_code" : 2690,
		"name" : "Karlslunde"
	},
	{
		"ID" : 17,
		"postal_code" : 2700,
		"name" : "Brønshøj"
	},
	{
		"ID" : 18,
		"postal_code" : 2720,
		"name" : "Vanløse"
	},
	{
		"ID" : 19,
		"postal_code" : 2730,
		"name" : "Herlev"
	},
	{
		"ID" : 20,
		"postal_code" : 2740,
		"name" : "Skovlunde"
	},
	{
		"ID" : 21,
		"postal_code" : 2750,
		"name" : "Ballerup"
	},
	{
		"ID" : 22,
		"postal_code" : 2760,
		"name" : "Måløv"
	},
	{
		"ID" : 23,
		"postal_code" : 2765,
		"name" : "Smørum"
	},
	{
		"ID" : 24,
		"postal_code" : 2770,
		"name" : "Kastrup"
	},
	{
		"ID" : 25,
		"postal_code" : 2791,
		"name" : "Dragør"
	}
]
